STARLINK-4776           
1 53837U 22114V   26068.87612273 -.00002766  00000+0 -15585-3 0  9993
2 53837  53.2184 302.9943 0001436  88.7474 271.3683 15.08823289192865
LEMUR-2-STELLA          
1 60533U 24149BT  26068.72657350  .00013685  00000+0  85776-3 0  9992
2 60533  97.6764 150.9122 0001299  95.1117 265.0260 15.09464064 85488
